start=new Date('2023-03-12T00:00:00.000Z').valueOf();
sats=[{"ELEMENT_SET_NO":"999","ARG_OF_PERICENTER":"69.6667","APOAPSIS":"540.801","FILE":"3857847","MEAN_ANOMALY":"290.4485","DECAY_DATE":null,"RCS_SIZE":"LARGE","MEAN_ELEMENT_THEORY":"SGP4","SEMIMAJOR_AXIS":"6917.910","NORAD_CAT_ID":"53841","MEAN_MOTION_DOT":"-0.00003517","TIME_SYSTEM":"UTC","RA_OF_ASC_NODE":"165.3809","OBJECT_TYPE":"PAYLOAD","ECCENTRICITY":"0.00014840","INCLINATION":"53.2180","BSTAR":"-0.00020301000000","LAUNCH_DATE":"2022-09-19","PERIOD":"95.438","MEAN_MOTION":"15.08830446","MEAN_MOTION_DDOT":"0.0000000000000","PERIAPSIS":"538.748","TLE_LINE2":"2 53841  53.2180 165.3809 0001484  69.6667 290.4485 15.08830446 27810","TLE_LINE1":"1 53841U 22114Z   23070.69413748 -.00003517  00000-0 -20301-3 0  9992","EPOCH":"2023-03-11T16:39:33.478272","REF_FRAME":"TEME","COUNTRY_CODE":"US","SITE":"AFETR","REV_AT_EPOCH":"2781","CENTER_NAME":"EARTH","CLASSIFICATION_TYPE":"U","GP_ID":"227892908","OBJECT_ID":"2022-114Z","OBJECT_NAME":"STARLINK-4750","EPHEMERIS_TYPE":"0"},{"REF_FRAME":"TEME","COUNTRY_CODE":"US","EPOCH":"2023-03-11T16:18:20.633472","TLE_LINE1":"1 53842U 22114AA  23070.67940548  .00049152  00000-0  30852-2 0  9998","TLE_LINE2":"2 53842  53.2170 165.2922 0000992  48.6755 311.4322 15.08837330 27816","GP_ID":"227893159","OBJECT_ID":"2022-114AA","OBJECT_NAME":"STARLINK-4754","EPHEMERIS_TYPE":"0","CLASSIFICATION_TYPE":"U","SITE":"AFETR","REV_AT_EPOCH":"2781","CENTER_NAME":"EARTH","RA_OF_ASC_NODE":"165.2922","MEAN_ELEMENT_THEORY":"SGP4","SEMIMAJOR_AXIS":"6917.889","MEAN_MOTION_DOT":"0.00049152","NORAD_CAT_ID":"53842","TIME_SYSTEM":"UTC","DECAY_DATE":null,"RCS_SIZE":"LARGE","ARG_OF_PERICENTER":"48.6755","ELEMENT_SET_NO":"999","APOAPSIS":"540.440","FILE":"3857847","MEAN_ANOMALY":"311.4322","MEAN_MOTION_DDOT":"0.0000000000000","PERIAPSIS":"539.067","LAUNCH_DATE":"2022-09-19","PERIOD":"95.438","MEAN_MOTION":"15.08837330","BSTAR":"0.00308520000000","INCLINATION":"53.2170","OBJECT_TYPE":"PAYLOAD","ECCENTRICITY":"0.00009920"},{"OBJECT_NAME":"STARLINK-4769","EPHEMERIS_TYPE":"0","OBJECT_ID":"2022-114AB","GP_ID":"227891907","CLASSIFICATION_TYPE":"U","CENTER_NAME":"EARTH","REV_AT_EPOCH":"2782","SITE":"AFETR","COUNTRY_CODE":"US","REF_FRAME":"TEME","EPOCH":"2023-03-11T18:09:38.670912","TLE_LINE1":"1 53843U 22114AB  23070.75669758  .00036616  00000-0  23068-2 0  9991","TLE_LINE2":"2 53843  53.2170 165.0636 0001299 123.1093 237.0024 15.08840481 27826","PERIAPSIS":"538.845","MEAN_MOTION_DDOT":"0.0000000000000","MEAN_MOTION":"15.08840481","PERIOD":"95.438","LAUNCH_DATE":"2022-09-19","BSTAR":"0.00230680000000","INCLINATION":"53.2170","ECCENTRICITY":"0.00012990","OBJECT_TYPE":"PAYLOAD","RA_OF_ASC_NODE":"165.0636","MEAN_MOTION_DOT":"0.00036616","TIME_SYSTEM":"UTC","NORAD_CAT_ID":"53843","SEMIMAJOR_AXIS":"6917.879","MEAN_ELEMENT_THEORY":"SGP4","RCS_SIZE":"LARGE","DECAY_DATE":null,"FILE":"3857847","MEAN_ANOMALY":"237.0024","APOAPSIS":"540.643","ELEMENT_SET_NO":"999","ARG_OF_PERICENTER":"123.1093"},{"PERIOD":"95.438","MEAN_MOTION":"15.08833560","LAUNCH_DATE":"2022-09-19","MEAN_MOTION_DDOT":"0.0000000000000","PERIAPSIS":"538.489","OBJECT_TYPE":"PAYLOAD","ECCENTRICITY":"0.00018450","INCLINATION":"53.2177","BSTAR":"-0.00025115000000","SEMIMAJOR_AXIS":"6917.900","MEAN_MOTION_DOT":"-0.00004282","TIME_SYSTEM":"UTC","NORAD_CAT_ID":"53844","MEAN_ELEMENT_THEORY":"SGP4","RA_OF_ASC_NODE":"165.8432","APOAPSIS":"541.041","FILE":"3857847","MEAN_ANOMALY":"256.0018","ELEMENT_SET_NO":"999","ARG_OF_PERICENTER":"104.1179","DECAY_DATE":null,"RCS_SIZE":"LARGE","OBJECT_ID":"2022-114AC","EPHEMERIS_TYPE":"0","OBJECT_NAME":"STARLINK-4745","GP_ID":"227892157","REV_AT_EPOCH":"2779","CENTER_NAME":"EARTH","SITE":"AFETR","CLASSIFICATION_TYPE":"U","EPOCH":"2023-03-11T12:56:57.850944","COUNTRY_CODE":"US","REF_FRAME":"TEME","TLE_LINE2":"2 53844  53.2177 165.8432 0001845 104.1179 256.0018 15.08833560 27797","TLE_LINE1":"1 53844U 22114AC  23070.53955846 -.00004282  00000-0 -25115-3 0  9996"},{"TLE_LINE2":"2 53845  53.2147 166.2279 0001443 153.0468 207.0599 15.08814726 27789","TLE_LINE1":"1 53845U 22114AD  23070.48436636  .00009871  00000-0  63786-3 0  9995","EPOCH":"2023-03-11T11:37:29.253504","REF_FRAME":"TEME","COUNTRY_CODE":"US","SITE":"AFETR","REV_AT_EPOCH":"2778","CENTER_NAME":"EARTH","CLASSIFICATION_TYPE":"U","GP_ID":"227892409","OBJECT_ID":"2022-114AD","OBJECT_NAME":"STARLINK-4753","EPHEMERIS_TYPE":"0","ELEMENT_SET_NO":"999","ARG_OF_PERICENTER":"153.0468","APOAPSIS":"540.821","MEAN_ANOMALY":"207.0599","FILE":"3857847","DECAY_DATE":null,"RCS_SIZE":"LARGE","MEAN_ELEMENT_THEORY":"SGP4","SEMIMAJOR_AXIS":"6917.958","TIME_SYSTEM":"UTC","MEAN_MOTION_DOT":"0.00009871","NORAD_CAT_ID":"53845","RA_OF_ASC_NODE":"166.2279","OBJECT_TYPE":"PAYLOAD","ECCENTRICITY":"0.00014430","INCLINATION":"53.2147","BSTAR":"0.00063786000000","LAUNCH_DATE":"2022-09-19","PERIOD":"95.439","MEAN_MOTION":"15.08814726","MEAN_MOTION_DDOT":"0.0000000000000","PERIAPSIS":"538.824"},{"TLE_LINE1":"1 53846U 22114AE  23070.86338722  .00031979  00000-0  20187-2 0  9996","TLE_LINE2":"2 53846  53.2157 164.3126 0001810 100.6402 259.4794 15.08831567 27842","REF_FRAME":"TEME","COUNTRY_CODE":"US","EPOCH":"2023-03-11T20:43:16.655808","CLASSIFICATION_TYPE":"U","SITE":"AFETR","REV_AT_EPOCH":"2784","CENTER_NAME":"EARTH","GP_ID":"227892660","OBJECT_ID":"2022-114AE","OBJECT_NAME":"STARLINK-4746","EPHEMERIS_TYPE":"0","DECAY_DATE":null,"RCS_SIZE":"LARGE","ELEMENT_SET_NO":"999","ARG_OF_PERICENTER":"100.6402","APOAPSIS":"541.023","MEAN_ANOMALY":"259.4794","FILE":"3857847","RA_OF_ASC_NODE":"164.3126","MEAN_ELEMENT_THEORY":"SGP4","SEMIMAJOR_AXIS":"6917.906","TIME_SYSTEM":"UTC","MEAN_MOTION_DOT":"0.00031979","NORAD_CAT_ID":"53846","BSTAR":"0.00201870000000","INCLINATION":"53.2157","OBJECT_TYPE":"PAYLOAD","ECCENTRICITY":"0.00018100","MEAN_MOTION_DDOT":"0.0000000000000","PERIAPSIS":"538.519","LAUNCH_DATE":"2022-09-19","PERIOD":"95.438","MEAN_MOTION":"15.08831567"},{"PERIAPSIS":"538.955","MEAN_MOTION_DDOT":"0.0000000000000","MEAN_MOTION":"15.08839861","PERIOD":"95.438","LAUNCH_DATE":"2022-09-19","INCLINATION":"53.2169","BSTAR":"0.00036062000000","ECCENTRICITY":"0.00011430","OBJECT_TYPE":"PAYLOAD","RA_OF_ASC_NODE":"166.1637","MEAN_MOTION_DOT":"0.00005456","TIME_SYSTEM":"UTC","NORAD_CAT_ID":"53847","SEMIMAJOR_AXIS":"6917.881","MEAN_ELEMENT_THEORY":"SGP4","RCS_SIZE":"LARGE","DECAY_DATE":null,"MEAN_ANOMALY":"258.9895","FILE":"3857847","APOAPSIS":"540.537","ELEMENT_SET_NO":"999","ARG_OF_PERICENTER":"101.1226","EPHEMERIS_TYPE":"0","OBJECT_NAME":"STARLINK-4777","OBJECT_ID":"2022-114AF","GP_ID":"227891408","CLASSIFICATION_TYPE":"U","CENTER_NAME":"EARTH","REV_AT_EPOCH":"2778","SITE":"AFETR","COUNTRY_CODE":"US","REF_FRAME":"TEME","EPOCH":"2023-03-11T11:26:53.185344","TLE_LINE1":"1 53847U 22114AF  23070.47700446  .00005456  00000-0  36062-3 0  9991","TLE_LINE2":"2 53847  53.2169 166.1637 0001143 101.1226 258.9895 15.08839861 27786"},{"RA_OF_ASC_NODE":"165.7546","MEAN_MOTION_DOT":"-0.00004346","TIME_SYSTEM":"UTC","NORAD_CAT_ID":"53848","SEMIMAJOR_AXIS":"6917.926","MEAN_ELEMENT_THEORY":"SGP4","RCS_SIZE":"LARGE","DECAY_DATE":null,"MEAN_ANOMALY":"257.3175","FILE":"3857847","APOAPSIS":"541.024","ARG_OF_PERICENTER":"102.8016","ELEMENT_SET_NO":"999","PERIAPSIS":"538.559","MEAN_MOTION_DDOT":"0.0000000000000","MEAN_MOTION":"15.08824919","PERIOD":"95.439","LAUNCH_DATE":"2022-09-19","BSTAR":"-0.00025520000000","INCLINATION":"53.2163","ECCENTRICITY":"0.00017810","OBJECT_TYPE":"PAYLOAD","COUNTRY_CODE":"US","REF_FRAME":"TEME","EPOCH":"2023-03-11T12:35:43.838016","TLE_LINE1":"1 53848U 22114AG  23070.52481294 -.00004346  00000-0 -25520-3 0  9991","TLE_LINE2":"2 53848  53.2163 165.7546 0001781 102.8016 257.3175 15.08824919 27791","EPHEMERIS_TYPE":"0","OBJECT_NAME":"STARLINK-4780","OBJECT_ID":"2022-114AG","GP_ID":"227891658","CLASSIFICATION_TYPE":"U","CENTER_NAME":"EARTH","REV_AT_EPOCH":"2779","SITE":"AFETR"},{"TLE_LINE1":"1 53849U 22114AH  23070.66834764 -.00002454  00000-0 -13617-3 0  9993","TLE_LINE2":"2 53849  53.2159 165.2193 0001812 120.5457 239.5714 15.08827993 27810","REF_FRAME":"TEME","COUNTRY_CODE":"US","EPOCH":"2023-03-11T16:02:25.236096","CLASSIFICATION_TYPE":"U","SITE":"AFETR","REV_AT_EPOCH":"2781","CENTER_NAME":"EARTH","GP_ID":"227892909","OBJECT_ID":"2022-114AH","OBJECT_NAME":"STARLINK-4770","EPHEMERIS_TYPE":"0","DECAY_DATE":null,"RCS_SIZE":"LARGE","ELEMENT_SET_NO":"999","ARG_OF_PERICENTER":"120.5457","APOAPSIS":"541.036","FILE":"3857847","MEAN_ANOMALY":"239.5714","RA_OF_ASC_NODE":"165.2193","MEAN_ELEMENT_THEORY":"SGP4","SEMIMAJOR_AXIS":"6917.917","TIME_SYSTEM":"UTC","MEAN_MOTION_DOT":"-0.00002454","NORAD_CAT_ID":"53849","BSTAR":"-0.00013617000000","INCLINATION":"53.2159","OBJECT_TYPE":"PAYLOAD","ECCENTRICITY":"0.00018120","MEAN_MOTION_DDOT":"0.0000000000000","PERIAPSIS":"538.529","LAUNCH_DATE":"2022-09-19","PERIOD":"95.438","MEAN_MOTION":"15.08827993"},{"RA_OF_ASC_NODE":"165.3868","MEAN_MOTION_DOT":"-0.00003492","TIME_SYSTEM":"UTC","NORAD_CAT_ID":"53850","SEMIMAJOR_AXIS":"6917.923","MEAN_ELEMENT_THEORY":"SGP4","RCS_SIZE":"LARGE","DECAY_DATE":null,"MEAN_ANOMALY":"272.6608","FILE":"3857847","APOAPSIS":"541.056","ELEMENT_SET_NO":"999","ARG_OF_PERICENTER":"87.4594","PERIAPSIS":"538.520","MEAN_MOTION_DDOT":"0.0000000000000","MEAN_MOTION":"15.08826048","PERIOD":"95.438","LAUNCH_DATE":"2022-09-19","INCLINATION":"53.2166","BSTAR":"-0.00020147000000","ECCENTRICITY":"0.00018330","OBJECT_TYPE":"PAYLOAD","COUNTRY_CODE":"US","REF_FRAME":"TEME","EPOCH":"2023-03-11T13:55:13.245888","TLE_LINE1":"1 53850U 22114AJ  23070.58001442 -.00003492  00000-0 -20147-3 0  9994","TLE_LINE2":"2 53850  53.2166 165.3868 0001833  87.4594 272.6608 15.08826048 27805","OBJECT_NAME":"STARLINK-4767","EPHEMERIS_TYPE":"0","OBJECT_ID":"2022-114AJ","GP_ID":"227893160","CLASSIFICATION_TYPE":"U","CENTER_NAME":"EARTH","REV_AT_EPOCH":"2780","SITE":"AFETR"}];
